{
  "type": "FeatureCollection",
  "features": [
    {
      "type": "Feature",
      "properties": {
        "norad_id": 33924,
        "name": "COSMOS 2251 DEB",
        "group": "cosmos-2251-debris",
        "lat": 73.43384990771493,
        "lon": 17.90616775219062,
        "alt_km": 1304.2221633021281,
        "timestamp": "2025-12-10T11:33:53.777094+00:00",
        "meta_object_name": "COSMOS 2251 DEB",
        "meta_object_id": "1993-036ED",
        "meta_epoch": "2025-12-10T03:59:07.111392",
        "meta_mean_motion": 13.50218309,
        "meta_eccentricity": 0.0404049,
        "meta_inclination": 73.9142,
        "meta_ra_of_asc_node": 274.3384,
        "meta_arg_of_pericenter": 310.2439,
        "meta_mean_anomaly": 46.3966,
        "meta_ephemeris_type": 0,
        "meta_classification_type": "U",
        "meta_norad_cat_id": 33924,
        "meta_element_set_no": 999,
        "meta_rev_at_epoch": 82704,
        "meta_bstar": 0.0014553,
        "meta_mean_motion_dot": 1.52e-05,
        "meta_mean_motion_ddot": 0,
        "tle_line1": "1 33924U 93036ED  25344.16605453  .00001520  00000+0  14553-2 0  9997",
        "tle_line2": "2 33924  73.9142 274.3384 0404049 310.2439  46.3966 13.50218309827040"
      },
      "geometry": {
        "type": "Point",
        "coordinates": [
          17.90616775219062,
          73.43384990771493
        ]
      }
    },
    {
      "type": "Feature",
      "properties": {
        "norad_id": 33928,
        "name": "COSMOS 2251 DEB",
        "group": "cosmos-2251-debris",
        "lat": -60.76835971521499,
        "lon": 25.803683895494224,
        "alt_km": 716.7821378027256,
        "timestamp": "2025-12-10T11:33:53.777104+00:00",
        "meta_object_name": "COSMOS 2251 DEB",
        "meta_object_id": "1993-036EH",
        "meta_epoch": "2025-12-09T06:00:15.024096",
        "meta_mean_motion": 14.47395228,
        "meta_eccentricity": 0.0061289,
        "meta_inclination": 73.9261,
        "meta_ra_of_asc_node": 59.1349,
        "meta_arg_of_pericenter": 354.006,
        "meta_mean_anomaly": 6.0357,
        "meta_ephemeris_type": 0,
        "meta_classification_type": "U",
        "meta_norad_cat_id": 33928,
        "meta_element_set_no": 999,
        "meta_rev_at_epoch": 88594,
        "meta_bstar": 0.0004366,
        "meta_mean_motion_dot": 1.61e-05,
        "meta_mean_motion_ddot": 0,
        "tle_line1": "1 33928U 93036EH  25343.25017389  .00001610  00000+0  43660-3 0  9997",
        "tle_line2": "2 33928  73.9261  59.1349 0061289 354.0060   6.0357 14.47395228885940"
      },
      "geometry": {
        "type": "Point",
        "coordinates": [
          25.803683895494224,
          -60.76835971521499
        ]
      }
    },
    {
      "type": "Feature",
      "properties": {
        "norad_id": 33932,
        "name": "COSMOS 2251 DEB",
        "group": "cosmos-2251-debris",
        "lat": 34.83601126311892,
        "lon": 128.58988648023015,
        "alt_km": 767.0536598124982,
        "timestamp": "2025-12-10T11:33:53.777114+00:00",
        "meta_object_name": "COSMOS 2251 DEB",
        "meta_object_id": "1993-036EM",
        "meta_epoch": "2025-12-10T00:53:26.316096",
        "meta_mean_motion": 14.38744773,
        "meta_eccentricity": 0.0035164,
        "meta_inclination": 74.0346,
        "meta_ra_of_asc_node": 320.902,
        "meta_arg_of_pericenter": 37.8322,
        "meta_mean_anomaly": 322.5293,
        "meta_ephemeris_type": 0,
        "meta_classification_type": "U",
        "meta_norad_cat_id": 33932,
        "meta_element_set_no": 999,
        "meta_rev_at_epoch": 87959,
        "meta_bstar": 0.00071322,
        "meta_mean_motion_dot": 2.18e-05,
        "meta_mean_motion_ddot": 0,
        "tle_line1": "1 33932U 93036EM  25344.03711014  .00002180  00000+0  71322-3 0  9994",
        "tle_line2": "2 33932  74.0346 320.9020 0035164  37.8322 322.5293 14.38744773879598"
      },
      "geometry": {
        "type": "Point",
        "coordinates": [
          128.58988648023015,
          34.83601126311892
        ]
      }
    },
    {
      "type": "Feature",
      "properties": {
        "norad_id": 33933,
        "name": "COSMOS 2251 DEB",
        "group": "cosmos-2251-debris",
        "lat": 32.21842282306326,
        "lon": 74.60720060880713,
        "alt_km": 738.6628049780957,
        "timestamp": "2025-12-10T11:33:53.777124+00:00",
        "meta_object_name": "COSMOS 2251 DEB",
        "meta_object_id": "1993-036EN",
        "meta_epoch": "2025-12-10T04:42:35.804736",
        "meta_mean_motion": 14.33482037,
        "meta_eccentricity": 0.0070792,
        "meta_inclination": 74.0894,
        "meta_ra_of_asc_node": 64.7721,
        "meta_arg_of_pericenter": 73.9486,
        "meta_mean_anomaly": 286.9446,
        "meta_ephemeris_type": 0,
        "meta_classification_type": "U",
        "meta_norad_cat_id": 33933,
        "meta_element_set_no": 999,
        "meta_rev_at_epoch": 87748,
        "meta_bstar": 0.00042078,
        "meta_mean_motion_dot": 1.171e-05,
        "meta_mean_motion_ddot": 0,
        "tle_line1": "1 33933U 93036EN  25344.19624774  .00001171  00000+0  42078-3 0  9993",
        "tle_line2": "2 33933  74.0894  64.7721 0070792  73.9486 286.9446 14.33482037877482"
      },
      "geometry": {
        "type": "Point",
        "coordinates": [
          74.60720060880713,
          32.21842282306326
        ]
      }
    },
    {
      "type": "Feature",
      "properties": {
        "norad_id": 33934,
        "name": "COSMOS 2251 DEB",
        "group": "cosmos-2251-debris",
        "lat": -53.77605122827835,
        "lon": 81.87520621473791,
        "alt_km": 699.8129075899969,
        "timestamp": "2025-12-10T11:33:53.777134+00:00",
        "meta_object_name": "COSMOS 2251 DEB",
        "meta_object_id": "1993-036EP",
        "meta_epoch": "2025-12-09T17:43:29.748864",
        "meta_mean_motion": 14.5906508,
        "meta_eccentricity": 0.0015776,
        "meta_inclination": 74.0383,
        "meta_ra_of_asc_node": 106.2897,
        "meta_arg_of_pericenter": 230.1168,
        "meta_mean_anomaly": 129.8611,
        "meta_ephemeris_type": 0,
        "meta_classification_type": "U",
        "meta_norad_cat_id": 33934,
        "meta_element_set_no": 999,
        "meta_rev_at_epoch": 88695,
        "meta_bstar": 0.0016403,
        "meta_mean_motion_dot": 7.705e-05,
        "meta_mean_motion_ddot": 0,
        "tle_line1": "1 33934U 93036EP  25343.73853876  .00007705  00000+0  16403-2 0  9991",
        "tle_line2": "2 33934  74.0383 106.2897 0015776 230.1168 129.8611 14.59065080886951"
      },
      "geometry": {
        "type": "Point",
        "coordinates": [
          81.87520621473791,
          -53.77605122827835
        ]
      }
    },
    {
      "type": "Feature",
      "properties": {
        "norad_id": 33936,
        "name": "COSMOS 2251 DEB",
        "group": "cosmos-2251-debris",
        "lat": -39.648295261933406,
        "lon": -124.4623745261306,
        "alt_km": 680.5817854687166,
        "timestamp": "2025-12-10T11:33:53.777144+00:00",
        "meta_object_name": "COSMOS 2251 DEB",
        "meta_object_id": "1993-036ER",
        "meta_epoch": "2025-12-10T03:58:37.299072",
        "meta_mean_motion": 14.60244072,
        "meta_eccentricity": 0.0027718,
        "meta_inclination": 74.0188,
        "meta_ra_of_asc_node": 42.4033,
        "meta_arg_of_pericenter": 198.3709,
        "meta_mean_anomaly": 161.6458,
        "meta_ephemeris_type": 0,
        "meta_classification_type": "U",
        "meta_norad_cat_id": 33936,
        "meta_element_set_no": 999,
        "meta_rev_at_epoch": 88852,
        "meta_bstar": 0.0010244,
        "meta_mean_motion_dot": 4.942e-05,
        "meta_mean_motion_ddot": 0,
        "tle_line1": "1 33936U 93036ER  25344.16570948  .00004942  00000+0  10244-2 0  9994",
        "tle_line2": "2 33936  74.0188  42.4033 0027718 198.3709 161.6458 14.60244072888524"
      },
      "geometry": {
        "type": "Point",
        "coordinates": [
          -124.4623745261306,
          -39.648295261933406
        ]
      }
    },
    {
      "type": "Feature",
      "properties": {
        "norad_id": 33938,
        "name": "COSMOS 2251 DEB",
        "group": "cosmos-2251-debris",
        "lat": -4.1835943837186855,
        "lon": 32.591076818853296,
        "alt_km": 743.3048201921993,
        "timestamp": "2025-12-10T11:33:53.777154+00:00",
        "meta_object_name": "COSMOS 2251 DEB",
        "meta_object_id": "1993-036ET",
        "meta_epoch": "2025-12-10T02:58:24.616128",
        "meta_mean_motion": 14.46780531,
        "meta_eccentricity": 0.0016871,
        "meta_inclination": 74.045,
        "meta_ra_of_asc_node": 212.0601,
        "meta_arg_of_pericenter": 294.4089,
        "meta_mean_anomaly": 186.2779,
        "meta_ephemeris_type": 0,
        "meta_classification_type": "U",
        "meta_norad_cat_id": 33938,
        "meta_element_set_no": 999,
        "meta_rev_at_epoch": 88362,
        "meta_bstar": 0.00058683,
        "meta_mean_motion_dot": 2.102e-05,
        "meta_mean_motion_ddot": 0,
        "tle_line1": "1 33938U 93036ET  25344.12389602  .00002102  00000+0  58683-3 0  9993",
        "tle_line2": "2 33938  74.0450 212.0601 0016871 294.4089 186.2779 14.46780531883625"
      },
      "geometry": {
        "type": "Point",
        "coordinates": [
          32.591076818853296,
          -4.1835943837186855
        ]
      }
    }
  ]
}